ONEWEB-0332             
1 49279U 21090A   23285.80247304 -.00000365  00000+0 -10199-2 0  9998
2 49279  87.8948 124.4958 0001935  77.2829 282.8517 13.14502237 99046
ONEWEB-0347             
1 49280U 21090B   23285.79830085  .00000080  00000+0  16465-3 0  9997
2 49280  87.9205 109.1936 0002212  79.9980 280.1403 13.20770894101892
ONEWEB-0349             
1 49281U 21090C   23285.75410161  .00000110  00000+0  23900-3 0  9999
2 49281  87.9151 109.2373 0001383  93.7444 266.3847 13.20773472101967
ONEWEB-0353             
1 49282U 21090D   23285.79401964  .00000062  00000+0  13354-3 0  9993
2 49282  87.8953 124.4778 0001978  77.3242 282.8108 13.14500384100335
ONEWEB-0356             
1 49283U 21090E   23285.60048616  .00000066  00000+0  13003-3 0  9990
2 49283  87.9142 109.2723 0002290 112.9533 247.1842 13.20778249100653
ONEWEB-0358             
1 49284U 21090F   23285.78146562  .00000085  00000+0  17612-3 0  9990
2 49284  87.9152 109.2126 0001516  99.8112 260.3193 13.20774134102699
ONEWEB-0359             
1 49285U 21090G   23285.77935514  .00000068  00000+0  13595-3 0  9990
2 49285  87.9137 109.2451 0001138  87.0725 273.0538 13.20770791102669
ONEWEB-0360             
1 49286U 21090H   23285.54156488  .00000220  00000+0  50820-3 0  9993
2 49286  87.9145 109.2912 0001755  84.1324 276.0009 13.20774066100662
